HAWK-7C                 
1 56200U 23054Y   26068.68891713  .00007947  00000+0  30980-3 0  9991
2 56200  97.2829 317.5849 0003651  52.2090 307.9479 15.26207266161848
STARLINK-30085          
1 56709U 23067X   26068.82202005  .00001105  00000+0  49687-4 0  9990
2 56709  43.0009 270.0210 0001763 261.6576  98.4075 15.27572641155461
